{"type": "FeatureCollection", "features": [ {"type": "Feature", "properties": {"norad_id": 30252, "name": "FENGYUN 1C DEB", "group": "fengyun-1c-debris", "lat": -44.20429827917241, "lon": 19.847925678692693, "alt_km": 876.0972363092033, "timestamp": "2025-12-22T11:33:20.714344+00:00", "meta": {"OBJECT_NAME": "FENGYUN 1C DEB", "OBJECT_ID": "1999-025XM", "EPOCH": "2025-12-21T06:52:28.809120", "MEAN_MOTION": 14.09723506, "ECCENTRICITY": 0.0066231, "INCLINATION": 98.7428, "RA_OF_ASC_NODE": 10.0796, "ARG_OF_PERICENTER": 217.239, "MEAN_ANOMALY": 155.7594, "EPHEMERIS_TYPE": 0, "CLASSIFICATION_TYPE": "U", "NORAD_CAT_ID": 30252, "ELEMENT_SET_NO": 999, "REV_AT_EPOCH": 97086, "BSTAR": 0.0003462, "MEAN_MOTION_DOT": 5.77e-06, "MEAN_MOTION_DDOT": 0}, "tle": {"line1": "1 30252U 99025XM  25355.28644455  .00000577  00000+0  34620-3 0  9991", "line2": "2 30252  98.7428  10.0796 0066231 217.2390 155.7594 14.09723506970860"}}, "geometry": {"type": "Point", "coordinates": [19.847925678692693, -44.20429827917241]}}, {"type": "Feature", "properties": {"norad_id": 30253, "name": "FENGYUN 1C DEB", "group": "fengyun-1c-debris", "lat": -80.39870352037174, "lon": -161.8705692486977, "alt_km": 1045.3494390723472, "timestamp": "2025-12-22T11:33:20.714355+00:00", "meta": {"OBJECT_NAME": "FENGYUN 1C DEB", "OBJECT_ID": "1999-025XN", "EPOCH": "2025-12-21T01:37:05.371392", "MEAN_MOTION": 13.7321242, "ECCENTRICITY": 0.02209955, "INCLINATION": 98.7518, "RA_OF_ASC_NODE": 82.426, "ARG_OF_PERICENTER": 18.8804, "MEAN_ANOMALY": 102.7897, "EPHEMERIS_TYPE": 0, "CLASSIFICATION_TYPE": "U", "NORAD_CAT_ID": 30253, "ELEMENT_SET_NO": 999, "REV_AT_EPOCH": 94128, "BSTAR": 0.0015116622, "MEAN_MOTION_DOT": 1.63e-05, "MEAN_MOTION_DDOT": 0}, "tle": {"line1": "1 30253U 99025XN  25355.06742328  .00001630  00000+0  15117-2 0  9996", "line2": "2 30253  98.7518  82.4260 0220995  18.8804 102.7897 13.73212420941284"}}, "geometry": {"type": "Point", "coordinates": [-161.8705692486977, -80.39870352037174]}}, {"type": "Feature", "properties": {"norad_id": 30257, "name": "FENGYUN 1C DEB", "group": "fengyun-1c-debris", "lat": -45.57374973558714, "lon": 3.813110845772652, "alt_km": 887.287560061056, "timestamp": "2025-12-22T11:33:20.714365+00:00", "meta": {"OBJECT_NAME": "FENGYUN 1C DEB", "OBJECT_ID": "1999-025XS", "EPOCH": "2025-12-21T12:31:22.065888", "MEAN_MOTION": 14.09728344, "ECCENTRICITY": 0.00596923, "INCLINATION": 98.7496, "RA_OF_ASC_NODE": 353.8405, "ARG_OF_PERICENTER": 74.8412, "MEAN_ANOMALY": 51.7638, "EPHEMERIS_TYPE": 0, "CLASSIFICATION_TYPE": "U", "NORAD_CAT_ID": 30257, "ELEMENT_SET_NO": 999, "REV_AT_EPOCH": 97341, "BSTAR": 0.00016653401, "MEAN_MOTION_DOT": 2.55e-06, "MEAN_MOTION_DDOT": 0}, "tle": {"line1": "1 30257U 99025XS  25355.52178317  .00000255  00000+0  16653-3 0  9991", "line2": "2 30257  98.7496 353.8405 0059692  74.8412  51.7638 14.09728344973413"}}, "geometry": {"type": "Point", "coordinates": [3.813110845772652, -45.57374973558714]}}, {"type": "Feature", "properties": {"norad_id": 30259, "name": "FENGYUN 1C DEB", "group": "fengyun-1c-debris", "lat": 25.696201590224327, "lon": -155.63151199086, "alt_km": 863.3560195778155, "timestamp": "2025-12-22T11:33:20.714376+00:00", "meta": {"OBJECT_NAME": "FENGYUN 1C DEB", "OBJECT_ID": "1999-025XU", "EPOCH": "2025-12-21T20:38:15.118080", "MEAN_MOTION": 14.51547433, "ECCENTRICITY": 0.0242004, "INCLINATION": 98.7608, "RA_OF_ASC_NODE": 207.9756, "ARG_OF_PERICENTER": 240.5374, "MEAN_ANOMALY": 137.7773, "EPHEMERIS_TYPE": 0, "CLASSIFICATION_TYPE": "U", "NORAD_CAT_ID": 30259, "ELEMENT_SET_NO": 999, "REV_AT_EPOCH": 99607, "BSTAR": 0.00035948, "MEAN_MOTION_DOT": 2.042e-05, "MEAN_MOTION_DDOT": 0}, "tle": {"line1": "1 30259U 99025XU  25355.85989720  .00002042  00000+0  35948-3 0  9991", "line2": "2 30259  98.7608 207.9756 0242004 240.5374 137.7773 14.51547433996075"}}, "geometry": {"type": "Point", "coordinates": [-155.63151199086, 25.696201590224327]}}, {"type": "Feature", "properties": {"norad_id": 30263, "name": "FENGYUN 1C DEB", "group": "fengyun-1c-debris", "lat": -15.748587191843292, "lon": -71.08111817500348, "alt_km": 969.9451954887709, "timestamp": "2025-12-22T11:33:20.714386+00:00", "meta": {"OBJECT_NAME": "FENGYUN 1C DEB", "OBJECT_ID": "1999-025XY", "EPOCH": "2025-12-20T07:28:46.628256", "MEAN_MOTION": 14.01494898, "ECCENTRICITY": 0.01444826, "INCLINATION": 98.9351, "RA_OF_ASC_NODE": 109.3367, "ARG_OF_PERICENTER": 339.2977, "MEAN_ANOMALY": 76.0019, "EPHEMERIS_TYPE": 0, "CLASSIFICATION_TYPE": "U", "NORAD_CAT_ID": 30263, "ELEMENT_SET_NO": 999, "REV_AT_EPOCH": 96131, "BSTAR": 0.00070985244, "MEAN_MOTION_DOT": 1.131e-05, "MEAN_MOTION_DDOT": 0}, "tle": {"line1": "1 30263U 99025XY  25354.31165079  .00001131  00000+0  70985-3 0  9997", "line2": "2 30263  98.9351 109.3367 0144482 339.2977  76.0019 14.01494898961314"}}, "geometry": {"type": "Point", "coordinates": [-71.08111817500348, -15.748587191843292]}}, {"type": "Feature", "properties": {"norad_id": 30264, "name": "FENGYUN 1C DEB", "group": "fengyun-1c-debris", "lat": -60.29013273180373, "lon": -144.52556928707398, "alt_km": 800.2116880440017, "timestamp": "2025-12-22T11:33:20.714396+00:00", "meta": {"OBJECT_NAME": "FENGYUN 1C DEB", "OBJECT_ID": "1999-025XZ", "EPOCH": "2025-12-21T10:35:56.412096", "MEAN_MOTION": 14.07671583, "ECCENTRICITY": 0.01078898, "INCLINATION": 98.9696, "RA_OF_ASC_NODE": 50.5104, "ARG_OF_PERICENTER": 262.911, "MEAN_ANOMALY": 112.2462, "EPHEMERIS_TYPE": 0, "CLASSIFICATION_TYPE": "U", "NORAD_CAT_ID": 30264, "ELEMENT_SET_NO": 999, "REV_AT_EPOCH": 96680, "BSTAR": 0.0010479567, "MEAN_MOTION_DOT": 1.823e-05, "MEAN_MOTION_DDOT": 0}, "tle": {"line1": "1 30264U 99025XZ  25355.44162514  .00001823  00000+0  10480-2 0  9995", "line2": "2 30264  98.9696  50.5104 0107889 262.9110 112.2462 14.07671583966802"}}, "geometry": {"type": "Point", "coordinates": [-144.52556928707398, -60.29013273180373]}}, {"type": "Feature", "properties": {"norad_id": 30265, "name": "FENGYUN 1C DEB", "group": "fengyun-1c-debris", "lat": -67.99995350490582, "lon": -96.15224257308341, "alt_km": 705.1368766853057, "timestamp": "2025-12-22T11:33:20.714406+00:00", "meta": {"OBJECT_NAME": "FENGYUN 1C DEB", "OBJECT_ID": "1999-025YA", "EPOCH": "2025-12-21T06:40:46.027200", "MEAN_MOTION": 14.58769869, "ECCENTRICITY": 0.0028074, "INCLINATION": 98.6645, "RA_OF_ASC_NODE": 104.7675, "ARG_OF_PERICENTER": 345.8449, "MEAN_ANOMALY": 69.2084, "EPHEMERIS_TYPE": 0, "CLASSIFICATION_TYPE": "U", "NORAD_CAT_ID": 30265, "ELEMENT_SET_NO": 999, "REV_AT_EPOCH": 98526, "BSTAR": 0.0015582, "MEAN_MOTION_DOT": 7.274e-05, "MEAN_MOTION_DDOT": 0}, "tle": {"line1": "1 30265U 99025YA  25355.27831050  .00007274  00000+0  15582-2 0  9999", "line2": "2 30265  98.6645 104.7675 0028074 345.8449  69.2084 14.58769869985266"}}, "geometry": {"type": "Point", "coordinates": [-96.15224257308341, -67.99995350490582]}}, {"type": "Feature", "properties": {"norad_id": 30266, "name": "FENGYUN 1C DEB", "group": "fengyun-1c-debris", "lat": 2.8111617327155543, "lon": -118.72792156143188, "alt_km": 888.7394040661011, "timestamp": "2025-12-22T11:33:20.714416+00:00", "meta": {"OBJECT_NAME": "FENGYUN 1C DEB", "OBJECT_ID": "1999-025YB", "EPOCH": "2025-12-22T04:12:06.811776", "MEAN_MOTION": 14.15124347, "ECCENTRICITY": 0.0081992, "INCLINATION": 99.042, "RA_OF_ASC_NODE": 60.5136, "ARG_OF_PERICENTER": 39.1137, "MEAN_ANOMALY": 17.1736, "EPHEMERIS_TYPE": 0, "CLASSIFICATION_TYPE": "U", "NORAD_CAT_ID": 30266, "ELEMENT_SET_NO": 999, "REV_AT_EPOCH": 96923, "BSTAR": 0.0010663, "MEAN_MOTION_DOT": 2.092e-05, "MEAN_MOTION_DDOT": 0}, "tle": {"line1": "1 30266U 99025YB  25356.17507884  .00002092  00000+0  10663-2 0  9993", "line2": "2 30266  99.0420  60.5136 0081992  39.1137  17.1736 14.15124347969233"}}, "geometry": {"type": "Point", "coordinates": [-118.72792156143188, 2.8111617327155543]}}, {"type": "Feature", "properties": {"norad_id": 30267, "name": "FENGYUN 1C DEB", "group": "fengyun-1c-debris", "lat": 28.788341623570883, "lon": 62.79209274322403, "alt_km": 854.3095537532499, "timestamp": "2025-12-22T11:33:20.714427+00:00", "meta": {"OBJECT_NAME": "FENGYUN 1C DEB", "OBJECT_ID": "1999-025YC", "EPOCH": "2025-12-22T02:59:02.151744", "MEAN_MOTION": 14.23665627, "ECCENTRICITY": 0.0059763, "INCLINATION": 98.8494, "RA_OF_ASC_NODE": 67.3437, "ARG_OF_PERICENTER": 216.472, "MEAN_ANOMALY": 143.238, "EPHEMERIS_TYPE": 0, "CLASSIFICATION_TYPE": "U", "NORAD_CAT_ID": 30267, "ELEMENT_SET_NO": 999, "REV_AT_EPOCH": 97428, "BSTAR": 0.0014306, "MEAN_MOTION_DOT": 3.28e-05, "MEAN_MOTION_DDOT": 0}, "tle": {"line1": "1 30267U 99025YC  25356.12433046  .00003280  00000+0  14306-2 0  9995", "line2": "2 30267  98.8494  67.3437 0059763 216.4720 143.2380 14.23665627974287"}}, "geometry": {"type": "Point", "coordinates": [62.79209274322403, 28.788341623570883]}}, {"type": "Feature", "properties": {"norad_id": 30270, "name": "FENGYUN 1C DEB", "group": "fengyun-1c-debris", "lat": -54.03781496386891, "lon": 22.089370741846558, "alt_km": 867.5593702098586, "timestamp": "2025-12-22T11:33:20.714437+00:00", "meta": {"OBJECT_NAME": "FENGYUN 1C DEB", "OBJECT_ID": "1999-025YF", "EPOCH": "2025-12-22T00:02:33.030816", "MEAN_MOTION": 14.11275216, "ECCENTRICITY": 0.0007796, "INCLINATION": 98.7017, "RA_OF_ASC_NODE": 9.4386, "ARG_OF_PERICENTER": 134.8601, "MEAN_ANOMALY": 254.3392, "EPHEMERIS_TYPE": 0, "CLASSIFICATION_TYPE": "U", "NORAD_CAT_ID": 30270, "ELEMENT_SET_NO": 999, "REV_AT_EPOCH": 97492, "BSTAR": 9.8253e-05, "MEAN_MOTION_DOT": 1.35e-06, "MEAN_MOTION_DDOT": 0}, "tle": {"line1": "1 30270U 99025YF  25356.00177119  .00000135  00000+0  98253-4 0  9993", "line2": "2 30270  98.7017   9.4386 0007796 134.8601 254.3392 14.11275216974927"}}, "geometry": {"type": "Point", "coordinates": [22.089370741846558, -54.03781496386891]}}]}